ISS (ZARYA)             
1 25544U 98067A   26124.19972499  .00005402  00000+0  10582-3 0  9994
2 25544  51.6306 157.8339 0007307  21.3717 338.7575 15.49085010564935
POISK                   
1 36086U 09060A   26124.19972499  .00005402  00000+0  10582-3 0  9992
2 36086  51.6306 157.8339 0007307  21.3717 338.7575 15.49085010564994
CSS (TIANHE)            
1 48274U 21035A   26124.21223601  .00026092  00000+0  27888-3 0  9992
2 48274  41.4669 229.6452 0005502 327.6559  32.3943 15.63275069286291
ISS (NAUKA)             
1 49044U 21066A   26124.19972499  .00005402  00000+0  10582-3 0  9990
2 49044  51.6306 157.8339 0007307  21.3717 338.7575 15.49085010565038
FREGAT DEB              
1 49271U 11037PF  26122.40964041  .00009537  00000+0  14724-1 0  9998
2 49271  51.6390 139.4302 0936490 182.3416 177.2872 12.41195807219360
CSS (WENTIAN)           
1 53239U 22085A   26123.76503953  .00028891  00000+0  30856-3 0  9993
2 53239  41.4671 232.3771 0005611 325.0701  34.9770 15.63252154286250
CSS (MENGTIAN)          
1 54216U 22143A   26124.21223601  .00026092  00000+0  27888-3 0  9996
2 54216  41.4669 229.6452 0005502 327.6559  32.3943 15.63275069286531
TIANZHOU-9              
1 64786U 25149A   26124.21223601  .00026092  00000+0  27888-3 0  9998
2 64786  41.4669 229.6452 0005502 327.6559  32.3943 15.63275069286545
HRC MONOBLOCK CAMERA    
1 66052U 98067XR  26123.35211110  .00064715  00000+0  56670-3 0  9996
2 66052  51.6245 148.4025 0005066   7.1538 352.9530 15.68251592 30957
HTV-X1                  
1 66174U 25241A   26124.12129681  .00014038  00000+0  15558-3 0  9995
2 66174  51.6338 163.2274 0007389  22.6835 337.4485 15.63243432 29457
SZ-21 MODULE            
1 66515U 25246C   26123.56222740  .00043539  00000+0  31221-3 0  9999
2 66515  41.4731 224.4775 0003023  17.9028 342.1921 15.72860892 26706
SHENZHOU-22             
1 66645U 25272A   26124.21223601  .00026092  00000+0  27888-3 0  9991
2 66645  41.4669 229.6452 0005502 327.6559  32.3943 15.63275069286552
SOYUZ-MS 28             
1 66664U 25275A   26124.19972499  .00005402  00000+0  10582-3 0  9993
2 66664  51.6306 157.8339 0007307  21.3717 338.7575 15.49085010565271
