[
    {
        "ARG_OF_PERICENTER": 21.3717,
        "BSTAR": 0.00010582,
        "CLASSIFICATION_TYPE": "U",
        "ECCENTRICITY": 0.0007307,
        "ELEMENT_SET_NO": 999,
        "EPHEMERIS_TYPE": 0,
        "EPOCH": "2026-05-04T04:47:36.239136",
        "INCLINATION": 51.6306,
        "MEAN_ANOMALY": 338.7575,
        "MEAN_MOTION": 15.4908501,
        "MEAN_MOTION_DDOT": 0,
        "MEAN_MOTION_DOT": 5.402e-05,
        "NORAD_CAT_ID": 25544,
        "OBJECT_ID": "1998-067A",
        "OBJECT_NAME": "ISS (ZARYA)",
        "RA_OF_ASC_NODE": 157.8339,
        "REV_AT_EPOCH": 56493
    },
    {
        "ARG_OF_PERICENTER": 21.3717,
        "BSTAR": 0.00010582,
        "CLASSIFICATION_TYPE": "U",
        "ECCENTRICITY": 0.0007307,
        "ELEMENT_SET_NO": 999,
        "EPHEMERIS_TYPE": 0,
        "EPOCH": "2026-05-04T04:47:36.239136",
        "INCLINATION": 51.6306,
        "MEAN_ANOMALY": 338.7575,
        "MEAN_MOTION": 15.4908501,
        "MEAN_MOTION_DDOT": 0,
        "MEAN_MOTION_DOT": 5.402e-05,
        "NORAD_CAT_ID": 36086,
        "OBJECT_ID": "2009-060A",
        "OBJECT_NAME": "POISK",
        "RA_OF_ASC_NODE": 157.8339,
        "REV_AT_EPOCH": 56499
    },
    {
        "ARG_OF_PERICENTER": 327.6559,
        "BSTAR": 0.00027888,
        "CLASSIFICATION_TYPE": "U",
        "ECCENTRICITY": 0.0005502,
        "ELEMENT_SET_NO": 999,
        "EPHEMERIS_TYPE": 0,
        "EPOCH": "2026-05-04T05:05:37.191264",
        "INCLINATION": 41.4669,
        "MEAN_ANOMALY": 32.3943,
        "MEAN_MOTION": 15.63275069,
        "MEAN_MOTION_DDOT": 0,
        "MEAN_MOTION_DOT": 0.00026092,
        "NORAD_CAT_ID": 48274,
        "OBJECT_ID": "2021-035A",
        "OBJECT_NAME": "CSS (TIANHE)",
        "RA_OF_ASC_NODE": 229.6452,
        "REV_AT_EPOCH": 28629
    },
    {
        "ARG_OF_PERICENTER": 21.3717,
        "BSTAR": 0.00010582,
        "CLASSIFICATION_TYPE": "U",
        "ECCENTRICITY": 0.0007307,
        "ELEMENT_SET_NO": 999,
        "EPHEMERIS_TYPE": 0,
        "EPOCH": "2026-05-04T04:47:36.239136",
        "INCLINATION": 51.6306,
        "MEAN_ANOMALY": 338.7575,
        "MEAN_MOTION": 15.4908501,
        "MEAN_MOTION_DDOT": 0,
        "MEAN_MOTION_DOT": 5.402e-05,
        "NORAD_CAT_ID": 49044,
        "OBJECT_ID": "2021-066A",
        "OBJECT_NAME": "ISS (NAUKA)",
        "RA_OF_ASC_NODE": 157.8339,
        "REV_AT_EPOCH": 56503
    },
    {
        "ARG_OF_PERICENTER": 182.3416,
        "BSTAR": 0.014723931,
        "CLASSIFICATION_TYPE": "U",
        "ECCENTRICITY": 0.09364909,
        "ELEMENT_SET_NO": 999,
        "EPHEMERIS_TYPE": 0,
        "EPOCH": "2026-05-02T09:49:52.931424",
        "INCLINATION": 51.639,
        "MEAN_ANOMALY": 177.2872,
        "MEAN_MOTION": 12.41195807,
        "MEAN_MOTION_DDOT": 0,
        "MEAN_MOTION_DOT": 9.537e-05,
        "NORAD_CAT_ID": 49271,
        "OBJECT_ID": "2011-037PF",
        "OBJECT_NAME": "FREGAT DEB",
        "RA_OF_ASC_NODE": 139.4302,
        "REV_AT_EPOCH": 21936
    },
    {
        "ARG_OF_PERICENTER": 325.0701,
        "BSTAR": 0.00030856029,
        "CLASSIFICATION_TYPE": "U",
        "ECCENTRICITY": 0.00056115,
        "ELEMENT_SET_NO": 999,
        "EPHEMERIS_TYPE": 0,
        "EPOCH": "2026-05-03T18:21:39.415392",
        "INCLINATION": 41.4671,
        "MEAN_ANOMALY": 34.977,
        "MEAN_MOTION": 15.63252154,
        "MEAN_MOTION_DDOT": 0,
        "MEAN_MOTION_DOT": 0.00028891,
        "NORAD_CAT_ID": 53239,
        "OBJECT_ID": "2022-085A",
        "OBJECT_NAME": "CSS (WENTIAN)",
        "RA_OF_ASC_NODE": 232.3771,
        "REV_AT_EPOCH": 28625
    },
    {
        "ARG_OF_PERICENTER": 327.6559,
        "BSTAR": 0.00027888,
        "CLASSIFICATION_TYPE": "U",
        "ECCENTRICITY": 0.0005502,
        "ELEMENT_SET_NO": 999,
        "EPHEMERIS_TYPE": 0,
        "EPOCH": "2026-05-04T05:05:37.191264",
        "INCLINATION": 41.4669,
        "MEAN_ANOMALY": 32.3943,
        "MEAN_MOTION": 15.63275069,
        "MEAN_MOTION_DDOT": 0,
        "MEAN_MOTION_DOT": 0.00026092,
        "NORAD_CAT_ID": 54216,
        "OBJECT_ID": "2022-143A",
        "OBJECT_NAME": "CSS (MENGTIAN)",
        "RA_OF_ASC_NODE": 229.6452,
        "REV_AT_EPOCH": 28653
    },
    {
        "ARG_OF_PERICENTER": 327.6559,
        "BSTAR": 0.00027888,
        "CLASSIFICATION_TYPE": "U",
        "ECCENTRICITY": 0.0005502,
        "ELEMENT_SET_NO": 999,
        "EPHEMERIS_TYPE": 0,
        "EPOCH": "2026-05-04T05:05:37.191264",
        "INCLINATION": 41.4669,
        "MEAN_ANOMALY": 32.3943,
        "MEAN_MOTION": 15.63275069,
        "MEAN_MOTION_DDOT": 0,
        "MEAN_MOTION_DOT": 0.00026092,
        "NORAD_CAT_ID": 64786,
        "OBJECT_ID": "2025-149A",
        "OBJECT_NAME": "TIANZHOU-9",
        "RA_OF_ASC_NODE": 229.6452,
        "REV_AT_EPOCH": 28654
    },
    {
        "ARG_OF_PERICENTER": 7.1538,
        "BSTAR": 0.00056669876,
        "CLASSIFICATION_TYPE": "U",
        "ECCENTRICITY": 0.00050662,
        "ELEMENT_SET_NO": 999,
        "EPHEMERIS_TYPE": 0,
        "EPOCH": "2026-05-03T08:27:02.399040",
        "INCLINATION": 51.6245,
        "MEAN_ANOMALY": 352.953,
        "MEAN_MOTION": 15.68251592,
        "MEAN_MOTION_DDOT": 0,
        "MEAN_MOTION_DOT": 0.00064715,
        "NORAD_CAT_ID": 66052,
        "OBJECT_ID": "1998-067XR",
        "OBJECT_NAME": "HRC MONOBLOCK CAMERA",
        "RA_OF_ASC_NODE": 148.4025,
        "REV_AT_EPOCH": 3095
    },
    {
        "ARG_OF_PERICENTER": 22.6835,
        "BSTAR": 0.00015558,
        "CLASSIFICATION_TYPE": "U",
        "ECCENTRICITY": 0.0007389,
        "ELEMENT_SET_NO": 999,
        "EPHEMERIS_TYPE": 0,
        "EPOCH": "2026-05-04T02:54:40.044384",
        "INCLINATION": 51.6338,
        "MEAN_ANOMALY": 337.4485,
        "MEAN_MOTION": 15.63243432,
        "MEAN_MOTION_DDOT": 0,
        "MEAN_MOTION_DOT": 0.00014038,
        "NORAD_CAT_ID": 66174,
        "OBJECT_ID": "2025-241A",
        "OBJECT_NAME": "HTV-X1",
        "RA_OF_ASC_NODE": 163.2274,
        "REV_AT_EPOCH": 2945
    },
    {
        "ARG_OF_PERICENTER": 17.9028,
        "BSTAR": 0.00031220754,
        "CLASSIFICATION_TYPE": "U",
        "ECCENTRICITY": 0.00030236,
        "ELEMENT_SET_NO": 999,
        "EPHEMERIS_TYPE": 0,
        "EPOCH": "2026-05-03T13:29:36.447360",
        "INCLINATION": 41.4731,
        "MEAN_ANOMALY": 342.1921,
        "MEAN_MOTION": 15.72860892,
        "MEAN_MOTION_DDOT": 0,
        "MEAN_MOTION_DOT": 0.00043539,
        "NORAD_CAT_ID": 66515,
        "OBJECT_ID": "2025-246C",
        "OBJECT_NAME": "SZ-21 MODULE",
        "RA_OF_ASC_NODE": 224.4775,
        "REV_AT_EPOCH": 2670
    },
    {
        "ARG_OF_PERICENTER": 327.6559,
        "BSTAR": 0.00027888,
        "CLASSIFICATION_TYPE": "U",
        "ECCENTRICITY": 0.0005502,
        "ELEMENT_SET_NO": 999,
        "EPHEMERIS_TYPE": 0,
        "EPOCH": "2026-05-04T05:05:37.191264",
        "INCLINATION": 41.4669,
        "MEAN_ANOMALY": 32.3943,
        "MEAN_MOTION": 15.63275069,
        "MEAN_MOTION_DDOT": 0,
        "MEAN_MOTION_DOT": 0.00026092,
        "NORAD_CAT_ID": 66645,
        "OBJECT_ID": "2025-272A",
        "OBJECT_NAME": "SHENZHOU-22",
        "RA_OF_ASC_NODE": 229.6452,
        "REV_AT_EPOCH": 28655
    },
    {
        "ARG_OF_PERICENTER": 21.3717,
        "BSTAR": 0.00010582,
        "CLASSIFICATION_TYPE": "U",
        "ECCENTRICITY": 0.0007307,
        "ELEMENT_SET_NO": 999,
        "EPHEMERIS_TYPE": 0,
        "EPOCH": "2026-05-04T04:47:36.239136",
        "INCLINATION": 51.6306,
        "MEAN_ANOMALY": 338.7575,
        "MEAN_MOTION": 15.4908501,
        "MEAN_MOTION_DDOT": 0,
        "MEAN_MOTION_DOT": 5.402e-05,
        "NORAD_CAT_ID": 66664,
        "OBJECT_ID": "2025-275A",
        "OBJECT_NAME": "SOYUZ-MS 28",
        "RA_OF_ASC_NODE": 157.8339,
        "REV_AT_EPOCH": 56527
    }
]